start=new Date('2022-03-29T00:00:00.000Z').valueOf();
sats=[{"OBJECT_ID":"2021-018AJ","MEAN_MOTION_DOT":"0.00002792","MEAN_MOTION":"15.06401021","TLE_LINE2":"2 47819  53.0541 244.3754 0001553  58.5390 301.5751 15.06401021 59334","EPOCH":"2022-03-28T19:57:10.891584","REF_FRAME":"TEME","MEAN_MOTION_DDOT":"0.0000000000000","APOAPSIS":"548.286","MEAN_ELEMENT_THEORY":"SGP4","RA_OF_ASC_NODE":"244.3754","GP_ID":"199942917","CENTER_NAME":"EARTH","EPHEMERIS_TYPE":"0","SEMIMAJOR_AXIS":"6925.345","MEAN_ANOMALY":"301.5751","BSTAR":"0.00020628000000","COUNTRY_CODE":"US","SITE":"AFETR","OBJECT_NAME":"STARLINK-2402","INCLINATION":"53.0541","PERIAPSIS":"546.135","ELEMENT_SET_NO":"999","PERIOD":"95.592","LAUNCH_DATE":"2021-03-11","ECCENTRICITY":"0.00015530","TLE_LINE1":"1 47819U 21018AJ  22087.83137606  .00002792  00000-0  20628-3 0  9995","REV_AT_EPOCH":"5933","TIME_SYSTEM":"UTC","FILE":"3378342","CLASSIFICATION_TYPE":"U","NORAD_CAT_ID":"47819","RCS_SIZE":"LARGE","OBJECT_TYPE":"PAYLOAD","ARG_OF_PERICENTER":"58.5390","DECAY_DATE":null},{"CENTER_NAME":"EARTH","GP_ID":"199943167","RA_OF_ASC_NODE":"254.7679","MEAN_ELEMENT_THEORY":"SGP4","APOAPSIS":"548.269","SITE":"AFETR","COUNTRY_CODE":"US","BSTAR":"0.00013988000000","MEAN_ANOMALY":"293.5750","SEMIMAJOR_AXIS":"6925.335","EPHEMERIS_TYPE":"0","MEAN_MOTION":"15.06404488","MEAN_MOTION_DOT":"0.00001803","OBJECT_ID":"2021-018AK","MEAN_MOTION_DDOT":"0.0000000000000","REF_FRAME":"TEME","EPOCH":"2022-03-28T17:53:46.010688","TLE_LINE2":"2 47820  53.0522 254.7679 0001544  66.5401 293.5750 15.06404488 59179","FILE":"3378342","TIME_SYSTEM":"UTC","ARG_OF_PERICENTER":"66.5401","DECAY_DATE":null,"OBJECT_TYPE":"PAYLOAD","RCS_SIZE":"LARGE","NORAD_CAT_ID":"47820","CLASSIFICATION_TYPE":"U","ELEMENT_SET_NO":"999","PERIAPSIS":"546.131","INCLINATION":"53.0522","OBJECT_NAME":"STARLINK-2403","REV_AT_EPOCH":"5917","TLE_LINE1":"1 47820U 21018AK  22087.74567142  .00001803  00000-0  13988-3 0  9992","ECCENTRICITY":"0.00015440","LAUNCH_DATE":"2021-03-11","PERIOD":"95.592"},{"ELEMENT_SET_NO":"999","PERIAPSIS":"546.158","INCLINATION":"53.0534","OBJECT_NAME":"STARLINK-2406","REV_AT_EPOCH":"5927","TLE_LINE1":"1 47821U 21018AL  22087.85623702  .00001573  00000-0  12446-3 0  9992","ECCENTRICITY":"0.00015390","LAUNCH_DATE":"2021-03-11","PERIOD":"95.592","FILE":"3378342","TIME_SYSTEM":"UTC","DECAY_DATE":null,"ARG_OF_PERICENTER":"78.6065","OBJECT_TYPE":"PAYLOAD","NORAD_CAT_ID":"47821","RCS_SIZE":"LARGE","CLASSIFICATION_TYPE":"U","MEAN_MOTION_DOT":"0.00001573","MEAN_MOTION":"15.06396602","OBJECT_ID":"2021-018AL","MEAN_MOTION_DDOT":"0.0000000000000","REF_FRAME":"TEME","EPOCH":"2022-03-28T20:32:58.878528","TLE_LINE2":"2 47821  53.0534 244.2646 0001539  78.6065 281.5097 15.06396602 59275","CENTER_NAME":"EARTH","GP_ID":"199943919","RA_OF_ASC_NODE":"244.2646","MEAN_ELEMENT_THEORY":"SGP4","APOAPSIS":"548.290","SITE":"AFETR","BSTAR":"0.00012446000000","COUNTRY_CODE":"US","MEAN_ANOMALY":"281.5097","SEMIMAJOR_AXIS":"6925.359","EPHEMERIS_TYPE":"0"},{"CENTER_NAME":"EARTH","GP_ID":"199943669","RA_OF_ASC_NODE":"254.2152","MEAN_ELEMENT_THEORY":"SGP4","APOAPSIS":"548.494","SITE":"AFETR","BSTAR":"0.00031111000000","COUNTRY_CODE":"US","MEAN_ANOMALY":"303.3051","SEMIMAJOR_AXIS":"6925.336","EPHEMERIS_TYPE":"0","MEAN_MOTION":"15.06404051","MEAN_MOTION_DOT":"0.00004356","OBJECT_ID":"2021-018AM","MEAN_MOTION_DDOT":"0.0000000000000","REF_FRAME":"TEME","EPOCH":"2022-03-28T20:48:56.314944","TLE_LINE2":"2 47822  53.0539 254.2152 0001867  56.8116 303.3051 15.06404051 59140","FILE":"3378342","TIME_SYSTEM":"UTC","ARG_OF_PERICENTER":"56.8116","DECAY_DATE":null,"OBJECT_TYPE":"PAYLOAD","NORAD_CAT_ID":"47822","RCS_SIZE":"LARGE","CLASSIFICATION_TYPE":"U","ELEMENT_SET_NO":"999","PERIAPSIS":"545.908","INCLINATION":"53.0539","OBJECT_NAME":"STARLINK-2407","REV_AT_EPOCH":"5914","TLE_LINE1":"1 47822U 21018AM  22087.86731846  .00004356  00000-0  31111-3 0  9995","ECCENTRICITY":"0.00018670","LAUNCH_DATE":"2021-03-11","PERIOD":"95.592"},{"MEAN_ANOMALY":"286.8369","BSTAR":"0.00014046000000","COUNTRY_CODE":"US","SITE":"AFETR","EPHEMERIS_TYPE":"0","SEMIMAJOR_AXIS":"6925.339","RA_OF_ASC_NODE":"245.3434","GP_ID":"199942417","CENTER_NAME":"EARTH","APOAPSIS":"548.276","MEAN_ELEMENT_THEORY":"SGP4","REF_FRAME":"TEME","MEAN_MOTION_DDOT":"0.0000000000000","TLE_LINE2":"2 47823  53.0547 245.3434 0001548  73.2790 286.8369 15.06403068 59246","EPOCH":"2022-03-28T14:49:19.721568","MEAN_MOTION":"15.06403068","MEAN_MOTION_DOT":"0.00001811","OBJECT_ID":"2021-018AN","CLASSIFICATION_TYPE":"U","NORAD_CAT_ID":"47823","RCS_SIZE":"LARGE","OBJECT_TYPE":"PAYLOAD","DECAY_DATE":null,"ARG_OF_PERICENTER":"73.2790","FILE":"3378342","TIME_SYSTEM":"UTC","ECCENTRICITY":"0.00015480","TLE_LINE1":"1 47823U 21018AN  22087.61758937  .00001811  00000-0  14046-3 0  9990","REV_AT_EPOCH":"5924","PERIOD":"95.592","LAUNCH_DATE":"2021-03-11","ELEMENT_SET_NO":"999","OBJECT_NAME":"STARLINK-2408","INCLINATION":"53.0547","PERIAPSIS":"546.132"},{"MEAN_MOTION_DOT":"0.00002174","MEAN_MOTION":"15.06400365","OBJECT_ID":"2021-018AP","REF_FRAME":"TEME","MEAN_MOTION_DDOT":"0.0000000000000","EPOCH":"2022-03-28T19:20:02.175072","TLE_LINE2":"2 47824  53.0536 244.4924 0001500  65.3532 294.7613 15.06400365 59262","GP_ID":"199942667","CENTER_NAME":"EARTH","RA_OF_ASC_NODE":"244.4924","APOAPSIS":"548.251","MEAN_ELEMENT_THEORY":"SGP4","BSTAR":"0.00016483000000","COUNTRY_CODE":"US","SITE":"AFETR","MEAN_ANOMALY":"294.7613","SEMIMAJOR_AXIS":"6925.347","EPHEMERIS_TYPE":"0","ELEMENT_SET_NO":"999","PERIAPSIS":"546.174","OBJECT_NAME":"STARLINK-2409","INCLINATION":"53.0536","TLE_LINE1":"1 47824U 21018AP  22087.80558073  .00002174  00000-0  16483-3 0  9991","REV_AT_EPOCH":"5926","ECCENTRICITY":"0.00015000","LAUNCH_DATE":"2021-03-11","PERIOD":"95.592","FILE":"3378342","TIME_SYSTEM":"UTC","OBJECT_TYPE":"PAYLOAD","DECAY_DATE":null,"ARG_OF_PERICENTER":"65.3532","CLASSIFICATION_TYPE":"U","NORAD_CAT_ID":"47824","RCS_SIZE":"LARGE"},{"CLASSIFICATION_TYPE":"U","RCS_SIZE":"LARGE","NORAD_CAT_ID":"47825","OBJECT_TYPE":"PAYLOAD","DECAY_DATE":null,"ARG_OF_PERICENTER":"70.1368","TIME_SYSTEM":"UTC","FILE":"3378342","PERIOD":"95.592","LAUNCH_DATE":"2021-03-11","ECCENTRICITY":"0.00015550","TLE_LINE1":"1 47825U 21018AQ  22087.69131037  .00004841  00000-0  34363-3 0  9996","REV_AT_EPOCH":"5925","OBJECT_NAME":"STARLINK-2410","INCLINATION":"53.0525","PERIAPSIS":"546.114","ELEMENT_SET_NO":"999","EPHEMERIS_TYPE":"0","SEMIMAJOR_AXIS":"6925.326","MEAN_ANOMALY":"289.9788","BSTAR":"0.00034363000000","COUNTRY_CODE":"US","SITE":"AFETR","APOAPSIS":"548.268","MEAN_ELEMENT_THEORY":"SGP4","RA_OF_ASC_NODE":"245.0053","GP_ID":"199943419","CENTER_NAME":"EARTH","TLE_LINE2":"2 47825  53.0525 245.0053 0001555  70.1368 289.9788 15.06407247 59256","EPOCH":"2022-03-28T16:35:29.215968","REF_FRAME":"TEME","MEAN_MOTION_DDOT":"0.0000000000000","OBJECT_ID":"2021-018AQ","MEAN_MOTION_DOT":"0.00004841","MEAN_MOTION":"15.06407247"},{"REV_AT_EPOCH":"5927","TLE_LINE1":"1 47826U 21018AR  22087.82031987  .00004179  00000-0  29926-3 0  9998","ECCENTRICITY":"0.00018630","LAUNCH_DATE":"2021-03-11","PERIOD":"95.592","ELEMENT_SET_NO":"999","PERIAPSIS":"545.906","INCLINATION":"53.0530","OBJECT_NAME":"STARLINK-2411","ARG_OF_PERICENTER":"53.8176","DECAY_DATE":null,"OBJECT_TYPE":"PAYLOAD","RCS_SIZE":"LARGE","NORAD_CAT_ID":"47826","CLASSIFICATION_TYPE":"U","FILE":"3378342","TIME_SYSTEM":"UTC","MEAN_MOTION_DDOT":"0.0000000000000","REF_FRAME":"TEME","EPOCH":"2022-03-28T19:41:15.636768","TLE_LINE2":"2 47826  53.0530 244.4319 0001863  53.8176 306.2985 15.06405815 59271","MEAN_MOTION_DOT":"0.00004179","MEAN_MOTION":"15.06405815","OBJECT_ID":"2021-018AR","SITE":"AFETR","BSTAR":"0.00029926000000","COUNTRY_CODE":"US","MEAN_ANOMALY":"306.2985","SEMIMAJOR_AXIS":"6925.331","EPHEMERIS_TYPE":"0","CENTER_NAME":"EARTH","GP_ID":"199944170","RA_OF_ASC_NODE":"244.4319","MEAN_ELEMENT_THEORY":"SGP4","APOAPSIS":"548.486"},{"OBJECT_TYPE":"PAYLOAD","ARG_OF_PERICENTER":"80.9753","DECAY_DATE":null,"CLASSIFICATION_TYPE":"U","RCS_SIZE":"LARGE","NORAD_CAT_ID":"47827","FILE":"3377801","TIME_SYSTEM":"UTC","TLE_LINE1":"1 47827U 21018AS  22087.51435731  .00002728  00000-0  20197-3 0  9999","REV_AT_EPOCH":"5942","ECCENTRICITY":"0.00013150","LAUNCH_DATE":"2021-03-11","PERIOD":"95.592","ELEMENT_SET_NO":"999","PERIAPSIS":"546.304","OBJECT_NAME":"STARLINK-2413","INCLINATION":"53.0531","BSTAR":"0.00020197000000","COUNTRY_CODE":"US","SITE":"AFETR","MEAN_ANOMALY":"279.1385","SEMIMAJOR_AXIS":"6925.350","EPHEMERIS_TYPE":"0","GP_ID":"199905192","CENTER_NAME":"EARTH","RA_OF_ASC_NODE":"235.8029","APOAPSIS":"548.125","MEAN_ELEMENT_THEORY":"SGP4","REF_FRAME":"TEME","MEAN_MOTION_DDOT":"0.0000000000000","EPOCH":"2022-03-28T12:20:40.471584","TLE_LINE2":"2 47827  53.0531 235.8029 0001315  80.9753 279.1385 15.06399635 59420","MEAN_MOTION":"15.06399635","MEAN_MOTION_DOT":"0.00002728","OBJECT_ID":"2021-018AS"},{"TLE_LINE2":"2 47828  53.0533 254.2038 0001705  61.4876 298.6284 15.06400900 59142","EPOCH":"2022-03-28T20:54:14.282496","REF_FRAME":"TEME","MEAN_MOTION_DDOT":"0.0000000000000","OBJECT_ID":"2021-018AT","MEAN_MOTION_DOT":"0.00000911","MEAN_MOTION":"15.06400900","EPHEMERIS_TYPE":"0","SEMIMAJOR_AXIS":"6925.346","MEAN_ANOMALY":"298.6284","BSTAR":"0.00008006700000","COUNTRY_CODE":"US","SITE":"AFETR","APOAPSIS":"548.392","MEAN_ELEMENT_THEORY":"SGP4","RA_OF_ASC_NODE":"254.2038","GP_ID":"199943168","CENTER_NAME":"EARTH","PERIOD":"95.592","LAUNCH_DATE":"2021-03-11","ECCENTRICITY":"0.00017050","TLE_LINE1":"1 47828U 21018AT  22087.87099864  .00000911  00000-0  80067-4 0  9997","REV_AT_EPOCH":"5914","OBJECT_NAME":"STARLINK-2415","INCLINATION":"53.0533","PERIAPSIS":"546.030","ELEMENT_SET_NO":"999","CLASSIFICATION_TYPE":"U","NORAD_CAT_ID":"47828","RCS_SIZE":"LARGE","OBJECT_TYPE":"PAYLOAD","DECAY_DATE":null,"ARG_OF_PERICENTER":"61.4876","TIME_SYSTEM":"UTC","FILE":"3378342"}];
